[{"OBJECT_NAME":"OBJECT F","OBJECT_ID":"2023-072F","EPOCH":"2026-03-09T23:31:37.259904","MEAN_MOTION":15.29470958,"ECCENTRICITY":0.00062878,"INCLINATION":97.5173,"RA_OF_ASC_NODE":265.798,"ARG_OF_PERICENTER":19.0017,"MEAN_ANOMALY":341.1456,"EPHEMERIS_TYPE":0,"CLASSIFICATION_TYPE":"U","NORAD_CAT_ID":56748,"ELEMENT_SET_NO":999,"REV_AT_EPOCH":15460,"BSTAR":0.00043416252,"MEAN_MOTION_DOT":0.00012341,"MEAN_MOTION_DDOT":0},{"OBJECT_NAME":"MONITOR-3 (RS58S)","OBJECT_ID":"2023-091Q","EPOCH":"2026-03-09T23:24:02.583360","MEAN_MOTION":15.25747617,"ECCENTRICITY":0.0013676,"INCLINATION":97.5199,"RA_OF_ASC_NODE":131.7909,"ARG_OF_PERICENTER":91.0881,"MEAN_ANOMALY":269.1924,"EPHEMERIS_TYPE":0,"CLASSIFICATION_TYPE":"U","NORAD_CAT_ID":57180,"ELEMENT_SET_NO":999,"REV_AT_EPOCH":14915,"BSTAR":0.00054974842,"MEAN_MOTION_DOT":0.00014004,"MEAN_MOTION_DDOT":0}]
